[{"OBJECT_NAME":"STARLINK-1557","OBJECT_ID":"2020-055H","EPOCH":"2026-03-10T00:00:02.999808","MEAN_MOTION":15.2035016,"ECCENTRICITY":0.0001718,"INCLINATION":53.1122,"RA_OF_ASC_NODE":124.7429,"ARG_OF_PERICENTER":94.4179,"MEAN_ANOMALY":143.9555,"EPHEMERIS_TYPE":0,"CLASSIFICATION_TYPE":"U","NORAD_CAT_ID":46034,"ELEMENT_SET_NO":999,"REV_AT_EPOCH":578,"BSTAR":0.0055116646,"MEAN_MOTION_DOT":0.00123185,"MEAN_MOTION_DDOT":0},{"OBJECT_NAME":"H-2A R\/B","OBJECT_ID":"2017-062B","EPOCH":"2026-03-09T03:23:18.284640","MEAN_MOTION":2.44006287,"ECCENTRICITY":0.71317936,"INCLINATION":31.9201,"RA_OF_ASC_NODE":340.6639,"ARG_OF_PERICENTER":108.2598,"MEAN_ANOMALY":336.0108,"EPHEMERIS_TYPE":0,"CLASSIFICATION_TYPE":"U","NORAD_CAT_ID":42966,"ELEMENT_SET_NO":999,"REV_AT_EPOCH":7239,"BSTAR":0.00088780379,"MEAN_MOTION_DOT":7.05e-6,"MEAN_MOTION_DDOT":0}]
